start=new Date('2023-01-27T00:00:00.000Z').valueOf();
sats=[{"OBJECT_NAME":"STARLINK-1189","OBJECT_TYPE":"PAYLOAD","COUNTRY_CODE":"US","CLASSIFICATION_TYPE":"U","REV_AT_EPOCH":"16289","SEMIMAJOR_AXIS":"6925.306","MEAN_MOTION":"15.06414011","MEAN_ELEMENT_THEORY":"SGP4","MEAN_MOTION_DOT":"0.00005391","EPHEMERIS_TYPE":"0","GP_ID":"223766730","RCS_SIZE":"LARGE","DECAY_DATE":null,"PERIAPSIS":"546.193","RA_OF_ASC_NODE":"76.5691","BSTAR":"0.00038040000000","APOAPSIS":"548.148","TLE_LINE1":"1 45221U 20012AV  23026.40765428  .00005391  00000-0  38040-3 0  9994","TIME_SYSTEM":"UTC","ELEMENT_SET_NO":"999","INCLINATION":"53.0536","FILE":"3762226","REF_FRAME":"TEME","TLE_LINE2":"2 45221  53.0536  76.5691 0001412  85.7055 274.4095 15.06414011162890","ECCENTRICITY":"0.00014120","PERIOD":"95.591","ARG_OF_PERICENTER":"85.7055","MEAN_ANOMALY":"274.4095","NORAD_CAT_ID":"45221","LAUNCH_DATE":"2020-02-17","CENTER_NAME":"EARTH","OBJECT_ID":"2020-012AV","MEAN_MOTION_DDOT":"0.0000000000000","EPOCH":"2023-01-26T09:47:01.329792","SITE":"AFETR"},{"RCS_SIZE":"LARGE","GP_ID":"223754131","EPHEMERIS_TYPE":"0","MEAN_MOTION_DOT":"0.00002804","MEAN_ELEMENT_THEORY":"SGP4","TLE_LINE1":"1 45222U 20012AW  23026.41502790  .00002804  00000-0  20705-3 0  9992","TIME_SYSTEM":"UTC","APOAPSIS":"548.162","BSTAR":"0.00020705000000","RA_OF_ASC_NODE":"76.5431","DECAY_DATE":null,"PERIAPSIS":"546.234","COUNTRY_CODE":"US","CLASSIFICATION_TYPE":"U","OBJECT_TYPE":"PAYLOAD","OBJECT_NAME":"STARLINK-1191","MEAN_MOTION":"15.06405041","SEMIMAJOR_AXIS":"6925.333","REV_AT_EPOCH":"16383","LAUNCH_DATE":"2020-02-17","NORAD_CAT_ID":"45222","SITE":"AFETR","EPOCH":"2023-01-26T09:57:38.410560","CENTER_NAME":"EARTH","OBJECT_ID":"2020-012AW","MEAN_MOTION_DDOT":"0.0000000000000","ELEMENT_SET_NO":"999","MEAN_ANOMALY":"281.3814","PERIOD":"95.592","ARG_OF_PERICENTER":"78.7332","TLE_LINE2":"2 45222  53.0518  76.5431 0001392  78.7332 281.3814 15.06405041163834","REF_FRAME":"TEME","ECCENTRICITY":"0.00013920","FILE":"3761951","INCLINATION":"53.0518"},{"TLE_LINE2":"2 45223  53.0560  76.7150 0001235  88.1363 271.9768 15.06406213163832","REF_FRAME":"TEME","ECCENTRICITY":"0.00012350","INCLINATION":"53.0560","FILE":"3761951","MEAN_ANOMALY":"271.9768","PERIOD":"95.592","ARG_OF_PERICENTER":"88.1363","ELEMENT_SET_NO":"999","EPOCH":"2023-01-26T08:52:35.142816","MEAN_MOTION_DDOT":"0.0000000000000","OBJECT_ID":"2020-012AX","CENTER_NAME":"EARTH","SITE":"AFETR","LAUNCH_DATE":"2020-02-17","NORAD_CAT_ID":"45223","SEMIMAJOR_AXIS":"6925.330","REV_AT_EPOCH":"16383","MEAN_MOTION":"15.06406213","OBJECT_TYPE":"PAYLOAD","OBJECT_NAME":"STARLINK-1212","CLASSIFICATION_TYPE":"U","COUNTRY_CODE":"US","BSTAR":"0.00026108000000","RA_OF_ASC_NODE":"76.7150","DECAY_DATE":null,"PERIAPSIS":"546.339","TIME_SYSTEM":"UTC","TLE_LINE1":"1 45223U 20012AX  23026.36985119  .00003610  00000-0  26108-3 0  9996","APOAPSIS":"548.050","MEAN_MOTION_DOT":"0.00003610","MEAN_ELEMENT_THEORY":"SGP4","RCS_SIZE":"LARGE","GP_ID":"223754358","EPHEMERIS_TYPE":"0"},{"ELEMENT_SET_NO":"999","MEAN_ANOMALY":"266.1577","PERIOD":"95.592","ARG_OF_PERICENTER":"93.9588","TLE_LINE2":"2 45225  53.0550  74.5681 0001541  93.9588 266.1577 15.06399680162967","REF_FRAME":"TEME","ECCENTRICITY":"0.00015410","FILE":"3762228","INCLINATION":"53.0550","LAUNCH_DATE":"2020-02-17","NORAD_CAT_ID":"45225","SITE":"AFETR","EPOCH":"2023-01-26T20:29:15.833472","OBJECT_ID":"2020-012AZ","MEAN_MOTION_DDOT":"0.0000000000000","CENTER_NAME":"EARTH","COUNTRY_CODE":"US","CLASSIFICATION_TYPE":"U","OBJECT_TYPE":"PAYLOAD","OBJECT_NAME":"STARLINK-1215","MEAN_MOTION":"15.06399680","SEMIMAJOR_AXIS":"6925.350","REV_AT_EPOCH":"16296","RCS_SIZE":"LARGE","GP_ID":"223766763","EPHEMERIS_TYPE":"0","MEAN_MOTION_DOT":"0.00001851","MEAN_ELEMENT_THEORY":"SGP4","TIME_SYSTEM":"UTC","TLE_LINE1":"1 45225U 20012AZ  23026.85365548  .00001851  00000-0  14316-3 0  9993","APOAPSIS":"548.282","BSTAR":"0.00014316000000","PERIAPSIS":"546.147","DECAY_DATE":null,"RA_OF_ASC_NODE":"74.5681"},{"ELEMENT_SET_NO":"999","MEAN_ANOMALY":"270.9148","PERIOD":"95.592","ARG_OF_PERICENTER":"89.2004","TLE_LINE2":"2 45226  53.0539  76.6218 0001420  89.2004 270.9148 15.06401083163746","REF_FRAME":"TEME","ECCENTRICITY":"0.00014200","INCLINATION":"53.0539","FILE":"3761951","LAUNCH_DATE":"2020-02-17","NORAD_CAT_ID":"45226","SITE":"AFETR","EPOCH":"2023-01-26T09:31:06.353184","OBJECT_ID":"2020-012BA","MEAN_MOTION_DDOT":"0.0000000000000","CENTER_NAME":"EARTH","CLASSIFICATION_TYPE":"U","COUNTRY_CODE":"US","OBJECT_TYPE":"PAYLOAD","OBJECT_NAME":"STARLINK-1217","MEAN_MOTION":"15.06401083","SEMIMAJOR_AXIS":"6925.345","REV_AT_EPOCH":"16374","RCS_SIZE":"LARGE","GP_ID":"223752880","EPHEMERIS_TYPE":"0","MEAN_MOTION_DOT":"0.00002079","MEAN_ELEMENT_THEORY":"SGP4","TIME_SYSTEM":"UTC","TLE_LINE1":"1 45226U 20012BA  23026.39660131  .00002079  00000-0  15845-3 0  9990","APOAPSIS":"548.194","BSTAR":"0.00015845000000","PERIAPSIS":"546.227","DECAY_DATE":null,"RA_OF_ASC_NODE":"76.6218"},{"MEAN_MOTION_DOT":"0.00002617","MEAN_ELEMENT_THEORY":"SGP4","GP_ID":"223753632","RCS_SIZE":"LARGE","EPHEMERIS_TYPE":"0","BSTAR":"0.00019449000000","PERIAPSIS":"546.120","DECAY_DATE":null,"RA_OF_ASC_NODE":"76.5277","TLE_LINE1":"1 45227U 20012BB  23026.41870938  .00002617  00000-0  19449-3 0  9994","TIME_SYSTEM":"UTC","APOAPSIS":"548.283","OBJECT_TYPE":"PAYLOAD","OBJECT_NAME":"STARLINK-1221","COUNTRY_CODE":"US","CLASSIFICATION_TYPE":"U","SEMIMAJOR_AXIS":"6925.336","REV_AT_EPOCH":"16375","MEAN_MOTION":"15.06403939","LAUNCH_DATE":"2020-02-17","NORAD_CAT_ID":"45227","EPOCH":"2023-01-26T10:02:56.490432","CENTER_NAME":"EARTH","MEAN_MOTION_DDOT":"0.0000000000000","OBJECT_ID":"2020-012BB","SITE":"AFETR","ELEMENT_SET_NO":"999","TLE_LINE2":"2 45227  53.0519  76.5277 0001562  80.9319 279.1846 15.06403939163752","REF_FRAME":"TEME","ECCENTRICITY":"0.00015620","INCLINATION":"53.0519","FILE":"3761951","MEAN_ANOMALY":"279.1846","ARG_OF_PERICENTER":"80.9319","PERIOD":"95.592"},{"CLASSIFICATION_TYPE":"U","COUNTRY_CODE":"US","OBJECT_NAME":"STARLINK-1222","OBJECT_TYPE":"PAYLOAD","MEAN_MOTION":"15.06404188","REV_AT_EPOCH":"16295","SEMIMAJOR_AXIS":"6925.336","EPHEMERIS_TYPE":"0","GP_ID":"223766782","RCS_SIZE":"LARGE","MEAN_ELEMENT_THEORY":"SGP4","MEAN_MOTION_DOT":"0.00002439","APOAPSIS":"548.285","TIME_SYSTEM":"UTC","TLE_LINE1":"1 45228U 20012BC  23026.82047920  .00002439  00000-0  18257-3 0  9995","DECAY_DATE":null,"PERIAPSIS":"546.116","RA_OF_ASC_NODE":"74.7154","BSTAR":"0.00018257000000","ELEMENT_SET_NO":"999","PERIOD":"95.592","ARG_OF_PERICENTER":"70.7124","MEAN_ANOMALY":"289.4034","FILE":"3762231","INCLINATION":"53.0526","ECCENTRICITY":"0.00015660","TLE_LINE2":"2 45228  53.0526  74.7154 0001566  70.7124 289.4034 15.06404188162951","REF_FRAME":"TEME","NORAD_CAT_ID":"45228","LAUNCH_DATE":"2020-02-17","SITE":"AFETR","MEAN_MOTION_DDOT":"0.0000000000000","OBJECT_ID":"2020-012BC","CENTER_NAME":"EARTH","EPOCH":"2023-01-26T19:41:29.402880"},{"MEAN_MOTION_DOT":"0.00003114","MEAN_ELEMENT_THEORY":"SGP4","GP_ID":"223766811","RCS_SIZE":"LARGE","EPHEMERIS_TYPE":"0","BSTAR":"0.00022780000000","DECAY_DATE":null,"RA_OF_ASC_NODE":"74.5859","PERIAPSIS":"546.214","TLE_LINE1":"1 45229U 20012BD  23026.84996881  .00003114  00000-0  22780-3 0  9994","TIME_SYSTEM":"UTC","APOAPSIS":"548.184","OBJECT_TYPE":"PAYLOAD","OBJECT_NAME":"STARLINK-1226","COUNTRY_CODE":"US","CLASSIFICATION_TYPE":"U","SEMIMAJOR_AXIS":"6925.334","REV_AT_EPOCH":"16296","MEAN_MOTION":"15.06404795","LAUNCH_DATE":"2020-02-17","NORAD_CAT_ID":"45229","EPOCH":"2023-01-26T20:23:57.305184","CENTER_NAME":"EARTH","OBJECT_ID":"2020-012BD","MEAN_MOTION_DDOT":"0.0000000000000","SITE":"AFETR","ELEMENT_SET_NO":"999","TLE_LINE2":"2 45229  53.0524  74.5859 0001422  85.3574 274.7577 15.06404795162966","ECCENTRICITY":"0.00014220","REF_FRAME":"TEME","FILE":"3762231","INCLINATION":"53.0524","MEAN_ANOMALY":"274.7577","ARG_OF_PERICENTER":"85.3574","PERIOD":"95.592"},{"MEAN_MOTION":"15.06402369","REV_AT_EPOCH":"16385","SEMIMAJOR_AXIS":"6925.341","COUNTRY_CODE":"US","CLASSIFICATION_TYPE":"U","OBJECT_NAME":"STARLINK-1227","OBJECT_TYPE":"PAYLOAD","APOAPSIS":"548.236","TIME_SYSTEM":"UTC","TLE_LINE1":"1 45230U 20012BE  23026.44819902  .00002372  00000-0  17808-3 0  9990","DECAY_DATE":null,"PERIAPSIS":"546.176","RA_OF_ASC_NODE":"76.3954","BSTAR":"0.00017808000000","EPHEMERIS_TYPE":"0","RCS_SIZE":"LARGE","GP_ID":"223753381","MEAN_ELEMENT_THEORY":"SGP4","MEAN_MOTION_DOT":"0.00002372","PERIOD":"95.592","ARG_OF_PERICENTER":"96.5766","MEAN_ANOMALY":"263.5392","FILE":"3761951","INCLINATION":"53.0533","TLE_LINE2":"2 45230  53.0533  76.3954 0001487  96.5766 263.5392 15.06402369163857","REF_FRAME":"TEME","ECCENTRICITY":"0.00014870","ELEMENT_SET_NO":"999","SITE":"AFETR","OBJECT_ID":"2020-012BE","MEAN_MOTION_DDOT":"0.0000000000000","CENTER_NAME":"EARTH","EPOCH":"2023-01-26T10:45:24.395328","NORAD_CAT_ID":"45230","LAUNCH_DATE":"2020-02-17"},{"NORAD_CAT_ID":"45232","LAUNCH_DATE":"2020-02-17","CENTER_NAME":"EARTH","MEAN_MOTION_DDOT":"0.0000000000000","OBJECT_ID":"2020-012BG","EPOCH":"2023-01-26T09:24:26.245152","SITE":"AFETR","ELEMENT_SET_NO":"999","INCLINATION":"53.0526","FILE":"3761951","TLE_LINE2":"2 45232  53.0526  76.6390 0001455  88.8852 271.2304 15.06401085163834","ECCENTRICITY":"0.00014550","REF_FRAME":"TEME","PERIOD":"95.592","ARG_OF_PERICENTER":"88.8852","MEAN_ANOMALY":"271.2304","MEAN_ELEMENT_THEORY":"SGP4","MEAN_MOTION_DOT":"0.00001746","EPHEMERIS_TYPE":"0","GP_ID":"223754132","RCS_SIZE":"LARGE","DECAY_DATE":null,"PERIAPSIS":"546.203","RA_OF_ASC_NODE":"76.6390","BSTAR":"0.00013606000000","APOAPSIS":"548.218","TLE_LINE1":"1 45232U 20012BG  23026.39197043  .00001746  00000-0  13606-3 0  9997","TIME_SYSTEM":"UTC","OBJECT_NAME":"STARLINK-1235","OBJECT_TYPE":"PAYLOAD","CLASSIFICATION_TYPE":"U","COUNTRY_CODE":"US","REV_AT_EPOCH":"16383","SEMIMAJOR_AXIS":"6925.345","MEAN_MOTION":"15.06401085"}];
